const validLaunchFixture = {
  "fairings": null,
  "links": {
    "patch": {
      "small": "https://images2.imgbox.com/0b/33/2eLGEejP_o.png",
      "large": "https://images2.imgbox.com/52/09/eNvilptL_o.png"
    },
    "reddit": {
      "campaign": null,
      "launch": null,
      "media": null,
      "recovery": null
    },
    "flickr": {"small": [], "original": []},
    "presskit": "https://www.nasa.gov/pdf/694166main_SpaceXCRS-1PressKit.pdf",
    "webcast": "https://www.youtube.com/watch?v=-Vk3hiV_zXU",
    "youtube_id": "-Vk3hiV_zXU",
    "article":
        "https://www.nasa.gov/mission_pages/station/main/spacex-crs1-target.html",
    "wikipedia": "https://en.wikipedia.org/wiki/SpaceX_CRS-1"
  },
  "static_fire_date_utc": "2012-09-29T00:00:00.000Z",
  "static_fire_date_unix": 1348876800,
  "net": false,
  "window": 0,
  "rocket": "5e9d0d95eda69973a809d1ec",
  "success": true,
  "failures": [],
  "details":
      "CRS-1 successful, but the secondary payload was inserted into abnormally low orbit and lost due to Falcon 9 boost stage engine failure, ISS visiting vehicle safety rules, and the primary payload owner's contractual right to decline a second ignition of the second stage under some conditions.",
  "crew": [],
  "ships": ["5ea6ed2d080df4000697c902"],
  "capsules": [
    {
      "reuse_count": 0,
      "water_landings": 1,
      "land_landings": 0,
      "last_update": "Location and status unknown",
      "launches": ["5eb87ce0ffd86e000604b332"],
      "serial": "C103",
      "status": "unknown",
      "type": "Dragon 1.0",
      "id": "5e9e2c5bf3591835983b2666"
    }
  ],
  "payloads": [
    {
      "dragon": {
        "capsule": "5e9e2c5bf3591835983b2666",
        "mass_returned_kg": 905,
        "mass_returned_lbs": 1995,
        "flight_time_sec": 1728000,
        "manifest": "https://en.wikipedia.org/wiki/SpaceX_CRS-1#Payload",
        "water_landing": true,
        "land_landing": false
      },
      "name": "CRS-1",
      "type": "Dragon 1.0",
      "reused": false,
      "launch": "5eb87ce0ffd86e000604b332",
      "customers": ["NASA (CRS)"],
      "norad_ids": [38846],
      "nationalities": ["United States"],
      "manufacturers": ["SpaceX"],
      "mass_kg": 400,
      "mass_lbs": 881,
      "orbit": "ISS",
      "reference_system": "geocentric",
      "regime": "low-earth",
      "longitude": null,
      "semi_major_axis_km": 6643.164,
      "eccentricity": 0.0092222,
      "periapsis_km": 203.764,
      "apoapsis_km": 326.293,
      "inclination_deg": 51.6539,
      "period_min": 89.809,
      "lifespan_years": null,
      "epoch": "2012-10-08T00:31:33.000Z",
      "mean_motion": 16.03395683,
      "raan": 281.4248,
      "arg_of_pericenter": 54.4728,
      "mean_anomaly": 306.4841,
      "id": "5eb0e4bab6c3bb0006eeb1eb"
    },
  ],
  "launchpad": {
    "images": {
      "large": ["https://i.imgur.com/9oEMXwa.png"]
    },
    "name": "CCSFS SLC 40",
    "full_name": "Cape Canaveral Space Force Station Space Launch Complex 40",
    "locality": "Cape Canaveral",
    "region": "Florida",
    "latitude": 28.5618571,
    "longitude": -80.577366,
    "launch_attempts": 88,
    "launch_successes": 86,
    "rockets": ["5e9d0d95eda69973a809d1ec"],
    "timezone": "America/New_York",
    "launches": [
      "5eb87cddffd86e000604b32f",
      "5eb87cdeffd86e000604b330",
      "5eb87cdfffd86e000604b331",
      "5eb87ce0ffd86e000604b332",
      "5eb87ce1ffd86e000604b333",
      "5eb87ce2ffd86e000604b335",
      "5eb87ce3ffd86e000604b336",
      "5eb87ce4ffd86e000604b337",
      "5eb87ce4ffd86e000604b338",
      "5eb87ce5ffd86e000604b339",
      "5eb87ce6ffd86e000604b33a",
      "5eb87ce7ffd86e000604b33b",
      "5eb87ce8ffd86e000604b33c",
      "5eb87ceaffd86e000604b33d",
      "5eb87ceaffd86e000604b33e",
      "5eb87cecffd86e000604b33f",
      "5eb87cedffd86e000604b340",
      "5eb87ceeffd86e000604b341",
      "5eb87cefffd86e000604b342",
      "5eb87cf2ffd86e000604b344",
      "5eb87cf3ffd86e000604b345",
      "5eb87cf5ffd86e000604b346",
      "5eb87cf6ffd86e000604b347",
      "5eb87cf8ffd86e000604b348",
      "5eb87cf9ffd86e000604b349",
      "5eb87cfaffd86e000604b34a",
      "5eb87cfbffd86e000604b34b",
      "5eb87d0effd86e000604b35c",
      "5eb87d10ffd86e000604b35e",
      "5eb87d11ffd86e000604b35f",
      "5eb87d15ffd86e000604b362",
      "5eb87d16ffd86e000604b364",
      "5eb87d18ffd86e000604b365",
      "5eb87d1bffd86e000604b368",
      "5eb87d1cffd86e000604b369",
      "5eb87d1effd86e000604b36a",
      "5eb87d20ffd86e000604b36c",
      "5eb87d22ffd86e000604b36d",
      "5eb87d26ffd86e000604b371",
      "5eb87d27ffd86e000604b372",
      "5eb87d2affd86e000604b374",
      "5eb87d2effd86e000604b377",
      "5eb87d30ffd86e000604b378",
      "5eb87d36ffd86e000604b37b",
      "5eb87d37ffd86e000604b37c",
      "5eb87d39ffd86e000604b37d",
      "5eb87d39ffd86e000604b37e",
      "5eb87d3bffd86e000604b37f",
      "5eb87d3cffd86e000604b380",
      "5eb87d3fffd86e000604b382",
      "5eb87d41ffd86e000604b383",
      "5eb87d42ffd86e000604b384",
      "5eb87d45ffd86e000604b387",
      "5eb87d46ffd86e000604b389",
      "5eb87d4affd86e000604b38b",
      "5eb87d50ffd86e000604b394",
      "5ed981d91f30554030d45c2a",
      "5eb87d47ffd86e000604b38a",
      "5ef6a2e70059c33cee4a8293",
      "5eb87d4cffd86e000604b38d",
      "5fb95b3f3a88ae63c954603c",
      "5eb87d4bffd86e000604b38c",
      "5eb87d4fffd86e000604b393",
      "5fd386aa7faea57d297c86c1",
      "5ff6554f9257f579ee3a6c5f",
      "600f9a5e8f798e2a4d5f979c",
      "600f9a718f798e2a4d5f979d",
      "60428aafc041c16716f73cd7",
      "60428ac4c041c16716f73cd8",
      "605b4b6aaa5433645e37d03f",
      "6079bd1c9a06446e8c61bf76",
      "6079bd399a06446e8c61bf77",
      "5fe3af6db3467846b3242160",
      "5eb87d4effd86e000604b390",
      "600f9b6d8f798e2a4d5f979f",
      "618faad2563d69573ed8ca9d",
      "6161c94c6db1a92bfba85349",
      "5fe3afc1b3467846b3242164",
      "61bf3e31cd5ab50b0d936345",
      "6161d32d6db1a92bfba85359",
      "61fc01dae0dc5662b76489a7",
      "61fc0243e0dc5662b76489ae",
      "6234908cf051102e1fcedac4",
      "6243ad8baf52800c6e919252",
      "6243ada6af52800c6e919253",
      "62582a6f5988f159024b964b",
      "625828f25988f159024b9643",
      "6243ae24af52800c6e919258"
    ],
    "status": "active",
    "details":
        "SpaceX's primary Falcon 9 pad, where all east coast Falcon 9s launched prior to the AMOS-6 anomaly. Previously used alongside SLC-41 to launch Titan rockets for the US Air Force, the pad was heavily damaged by the AMOS-6 anomaly in September 2016. It returned to flight with CRS-13 on December 15, 2017, boasting an upgraded throwback-style Transporter-Erector modeled after that at LC-39A.",
    "id": "5e9e4501f509094ba4566f84"
  },
  "flight_number": 9,
  "name": "CRS-1",
  "date_utc": "2012-10-08T00:35:00.000Z",
  "date_unix": 1349656500,
  "date_local": "2012-10-08T20:35:00-04:00",
  "date_precision": "hour",
  "upcoming": false,
  "cores": [
    {
      "core": "5e9e289ff3591821a73b262b",
      "flight": 1,
      "gridfins": false,
      "legs": false,
      "reused": false,
      "landing_attempt": false,
      "landing_success": null,
      "landing_type": null,
      "landpad": null
    }
  ],
  "auto_update": true,
  "tbd": false,
  "launch_library_id": null,
  "id": "5eb87ce0ffd86e000604b332"
};
